{
    "links": {
        "self": "http://www.neowsapp.com/rest/v1/neo/3683809?api_key=iIulBulltgU6a56xZRHN4H3l9WmuAYTsLGpBGhQ2"
    },
    "id": "3683809",
    "neo_reference_id": "3683809",
    "name": "(2014 QR296)",
    "designation": "2014 QR296",
    "nasa_jpl_url": "http://ssd.jpl.nasa.gov/sbdb.cgi?sstr=3683809",
    "absolute_magnitude_h": 25.2,
    "estimated_diameter": {
        "kilometers": {
            "estimated_diameter_min": 0.0242412481,
            "estimated_diameter_max": 0.0542050786
        },
        "meters": {
            "estimated_diameter_min": 24.2412481101,
            "estimated_diameter_max": 54.2050786336
        },
        "miles": {
            "estimated_diameter_min": 0.0150628086,
            "estimated_diameter_max": 0.0336814639
        },
        "feet": {
            "estimated_diameter_min": 79.5316564495,
            "estimated_diameter_max": 177.8381901842
        }
    },
    "is_potentially_hazardous_asteroid": false,
    "close_approach_data": [
        {
            "close_approach_date": "2007-05-09",
            "close_approach_date_full": "2007-May-09 01:46",
            "epoch_date_close_approach": 1178675160000,
            "relative_velocity": {
                "kilometers_per_second": "15.9218907915",
                "kilometers_per_hour": "57318.8068492949",
                "miles_per_hour": "35615.677511441"
            },
            "miss_distance": {
                "astronomical": "0.4313983489",
                "lunar": "167.8139577221",
                "kilometers": "64536274.116956843",
                "miles": "40100981.2290687134"
            },
            "orbiting_body": "Earth"
        },
        {
            "close_approach_date": "2014-08-20",
            "close_approach_date_full": "2014-Aug-20 21:23",
            "epoch_date_close_approach": 1408569780000,
            "relative_velocity": {
                "kilometers_per_second": "6.5032005521",
                "kilometers_per_hour": "23411.5219874532",
                "miles_per_hour": "14547.0093149261"
            },
            "miss_distance": {
                "astronomical": "0.0378525474",
                "lunar": "14.7246409386",
                "kilometers": "5662660.465114038",
                "miles": "3518614.0527202044"
            },
            "orbiting_body": "Earth"
        },
        {
            "close_approach_date": "2021-09-17",
            "close_approach_date_full": "2021-Sep-17 19:02",
            "epoch_date_close_approach": 1631905320000,
            "relative_velocity": {
                "kilometers_per_second": "17.3349492592",
                "kilometers_per_hour": "62405.8173331754",
                "miles_per_hour": "38776.5479979389"
            },
            "miss_distance": {
                "astronomical": "0.4165944297",
                "lunar": "162.0552331533",
                "kilometers": "62321639.336984739",
                "miles": "38724870.9878738382"
            },
            "orbiting_body": "Earth"
        },
        {
            "close_approach_date": "2082-05-23",
            "close_approach_date_full": "2082-May-23 08:16",
            "epoch_date_close_approach": 3546749760000,
            "relative_velocity": {
                "kilometers_per_second": "10.2304581054",
                "kilometers_per_hour": "36829.6491795077",
                "miles_per_hour": "22884.5117360113"
            },
            "miss_distance": {
                "astronomical": "0.2713862218",
                "lunar": "105.5692402802",
                "kilometers": "40598800.728627566",
                "miles": "25226924.9847137708"
            },
            "orbiting_body": "Earth"
        },
        {
            "close_approach_date": "2126-05-09",
            "close_approach_date_full": "2126-May-09 20:32",
            "epoch_date_close_approach": 4934032320000,
            "relative_velocity": {
                "kilometers_per_second": "16.8765805532",
                "kilometers_per_hour": "60755.6899913454",
                "miles_per_hour": "37751.2230393446"
            },
            "miss_distance": {
                "astronomical": "0.4636200821",
                "lunar": "180.3482119369",
                "kilometers": "69356576.771385127",
                "miles": "43096178.4093916726"
            },
            "orbiting_body": "Earth"
        }
    ],
    "orbital_data": {
        "orbit_id": "6",
        "orbit_determination_date": "2017-04-06 08:39:08",
        "first_observation_date": "2014-08-27",
        "last_observation_date": "2014-09-19",
        "data_arc_in_days": 23,
        "observations_used": 18,
        "orbit_uncertainty": "7",
        "minimum_orbit_intersection": ".0245404",
        "jupiter_tisserand_invariant": "5.077",
        "epoch_osculation": "2459000.5",
        "eccentricity": ".2117839418811118",
        "semi_major_axis": "1.259899801295644",
        "inclination": "10.03182183251266",
        "ascending_node_longitude": "155.1106694198807",
        "orbital_period": "516.5381919441423",
        "perihelion_distance": ".993073255002023",
        "perihelion_argument": "137.7746779750191",
        "aphelion_distance": "1.526726347589265",
        "perihelion_time": "2458922.838652816181",
        "mean_anomaly": "54.12588153636099",
        "mean_motion": ".6969474970379923",
        "equinox": "J2000",
        "orbit_class": {
            "orbit_class_type": "APO",
            "orbit_class_description": "Near-Earth asteroid orbits which cross the Earth’s orbit similar to that of 1862 Apollo",
            "orbit_class_range": "a (semi-major axis) > 1.0 AU; q (perihelion) < 1.017 AU"
        }
    },
    "is_sentry_object": false
}